{"type": "FeatureCollection", "features": [ {"type": "Feature", "properties": {"norad_id": 66616, "name": "STARLINK-35391", "group": "last-30-days", "lat": -37.56493539731727, "lon": 175.39099404848758, "alt_km": 360.07326585148166, "timestamp": "2025-12-06T05:40:08.012592+00:00", "meta": {"OBJECT_NAME": "STARLINK-35391", "OBJECT_ID": "2025-270AE", "EPOCH": "2025-12-05T06:00:02.000160", "MEAN_MOTION": 15.74053516, "ECCENTRICITY": 0.00015441, "INCLINATION": 42.9989, "RA_OF_ASC_NODE": 236.9792, "ARG_OF_PERICENTER": 281.2321, "MEAN_ANOMALY": 187.4607, "EPHEMERIS_TYPE": 0, "CLASSIFICATION_TYPE": "U", "NORAD_CAT_ID": 66616, "ELEMENT_SET_NO": 999, "REV_AT_EPOCH": 330, "BSTAR": -0.014757137, "MEAN_MOTION_DOT": -0.01889441, "MEAN_MOTION_DDOT": 0}, "tle": {"line1": "1 66616U 25270AE  25339.25002315 -.01889441  00000+0 -14757-1 0  9992", "line2": "2 66616  42.9989 236.9792 0001544 281.2321 187.4607 15.74053516  3305"}}, "geometry": {"type": "Point", "coordinates": [175.39099404848758, -37.56493539731727]}}, {"type": "Feature", "properties": {"norad_id": 66617, "name": "STARLINK-35940", "group": "last-30-days", "lat": -13.462093019315333, "lon": 49.30208516294633, "alt_km": 323.94383287379424, "timestamp": "2025-12-06T05:40:08.012603+00:00", "meta": {"OBJECT_NAME": "STARLINK-35940", "OBJECT_ID": "2025-271A", "EPOCH": "2025-12-04T19:28:40.696032", "MEAN_MOTION": 15.80789565, "ECCENTRICITY": 0.00032802, "INCLINATION": 53.1571, "RA_OF_ASC_NODE": 226.1131, "ARG_OF_PERICENTER": 234.7187, "MEAN_ANOMALY": 125.3529, "EPHEMERIS_TYPE": 0, "CLASSIFICATION_TYPE": "U", "NORAD_CAT_ID": 66617, "ELEMENT_SET_NO": 999, "REV_AT_EPOCH": 296, "BSTAR": 0.0031967141, "MEAN_MOTION_DOT": 0.00679795, "MEAN_MOTION_DDOT": 0}, "tle": {"line1": "1 66617U 25271A   25338.81158213  .00679795  00000+0  31967-2 0  9993", "line2": "2 66617  53.1571 226.1131 0003280 234.7187 125.3529 15.80789565  2969"}}, "geometry": {"type": "Point", "coordinates": [49.30208516294633, -13.462093019315333]}}, {"type": "Feature", "properties": {"norad_id": 66618, "name": "STARLINK-35970", "group": "last-30-days", "lat": -40.95470655042545, "lon": 79.48374878566723, "alt_km": 348.3295826802987, "timestamp": "2025-12-06T05:40:08.012613+00:00", "meta": {"OBJECT_NAME": "STARLINK-35970", "OBJECT_ID": "2025-271B", "EPOCH": "2025-12-05T04:19:07.911552", "MEAN_MOTION": 15.76026159, "ECCENTRICITY": 5.335e-05, "INCLINATION": 53.1554, "RA_OF_ASC_NODE": 224.1366, "ARG_OF_PERICENTER": 145.1653, "MEAN_ANOMALY": 214.9403, "EPHEMERIS_TYPE": 0, "CLASSIFICATION_TYPE": "U", "NORAD_CAT_ID": 66618, "ELEMENT_SET_NO": 999, "REV_AT_EPOCH": 302, "BSTAR": -0.0023737448, "MEAN_MOTION_DOT": -0.00361646, "MEAN_MOTION_DDOT": 0}, "tle": {"line1": "1 66618U 25271B   25339.17995268 -.00361646  00000+0 -23737-2 0  9994", "line2": "2 66618  53.1554 224.1366 0000533 145.1653 214.9403 15.76026159  3022"}}, "geometry": {"type": "Point", "coordinates": [79.48374878566723, -40.95470655042545]}}, {"type": "Feature", "properties": {"norad_id": 66619, "name": "STARLINK-35951", "group": "last-30-days", "lat": -9.555236957962219, "lon": 46.22328600631919, "alt_km": 337.5742728957812, "timestamp": "2025-12-06T05:40:08.012626+00:00", "meta": {"OBJECT_NAME": "STARLINK-35951", "OBJECT_ID": "2025-271C", "EPOCH": "2025-12-04T22:28:41.509920", "MEAN_MOTION": 15.79727935, "ECCENTRICITY": 1.39e-05, "INCLINATION": 53.1563, "RA_OF_ASC_NODE": 225.4695, "ARG_OF_PERICENTER": 34.7805, "MEAN_ANOMALY": 325.3226, "EPHEMERIS_TYPE": 0, "CLASSIFICATION_TYPE": "U", "NORAD_CAT_ID": 66619, "ELEMENT_SET_NO": 999, "REV_AT_EPOCH": 298, "BSTAR": -0.0031095, "MEAN_MOTION_DOT": -0.00547317, "MEAN_MOTION_DDOT": 0}, "tle": {"line1": "1 66619U 25271C   25338.93659155 -.00547317  00000+0 -31095-2 0  9997", "line2": "2 66619  53.1563 225.4695 0000139  34.7805 325.3226 15.79727935  2983"}}, "geometry": {"type": "Point", "coordinates": [46.22328600631919, -9.555236957962219]}}, {"type": "Feature", "properties": {"norad_id": 66620, "name": "STARLINK-35936", "group": "last-30-days", "lat": -2.7196050978918187, "lon": 41.03123057107541, "alt_km": 337.81991420781196, "timestamp": "2025-12-06T05:40:08.012636+00:00", "meta": {"OBJECT_NAME": "STARLINK-35936", "OBJECT_ID": "2025-271D", "EPOCH": "2025-12-05T04:34:54.500448", "MEAN_MOTION": 15.78982878, "ECCENTRICITY": 4.359e-05, "INCLINATION": 53.1557, "RA_OF_ASC_NODE": 224.2119, "ARG_OF_PERICENTER": 299.2433, "MEAN_ANOMALY": 60.8545, "EPHEMERIS_TYPE": 0, "CLASSIFICATION_TYPE": "U", "NORAD_CAT_ID": 66620, "ELEMENT_SET_NO": 999, "REV_AT_EPOCH": 302, "BSTAR": -0.0029583165, "MEAN_MOTION_DOT": -0.00505786, "MEAN_MOTION_DDOT": 0}, "tle": {"line1": "1 66620U 25271D   25339.19090857 -.00505786  00000+0 -29583-2 0  9999", "line2": "2 66620  53.1557 224.2119 0000435 299.2433  60.8545 15.78982878  3029"}}, "geometry": {"type": "Point", "coordinates": [41.03123057107541, -2.7196050978918187]}}, {"type": "Feature", "properties": {"norad_id": 66621, "name": "STARLINK-35847", "group": "last-30-days", "lat": -50.846129952012426, "lon": 105.89613666120931, "alt_km": 343.22341621342093, "timestamp": "2025-12-06T05:40:08.012647+00:00", "meta": {"OBJECT_NAME": "STARLINK-35847", "OBJECT_ID": "2025-271E", "EPOCH": "2025-12-04T05:29:14.400096", "MEAN_MOTION": 15.80119551, "ECCENTRICITY": 8.3e-05, "INCLINATION": 53.1563, "RA_OF_ASC_NODE": 228.8686, "ARG_OF_PERICENTER": 162.0892, "MEAN_ANOMALY": 198.016, "EPHEMERIS_TYPE": 0, "CLASSIFICATION_TYPE": "U", "NORAD_CAT_ID": 66621, "ELEMENT_SET_NO": 999, "REV_AT_EPOCH": 287, "BSTAR": -0.0041389, "MEAN_MOTION_DOT": -0.00726477, "MEAN_MOTION_DDOT": 0}, "tle": {"line1": "1 66621U 25271E   25338.22863889 -.00726477  00000+0 -41389-2 0  9996", "line2": "2 66621  53.1563 228.8686 0000830 162.0892 198.0160 15.80119551  2873"}}, "geometry": {"type": "Point", "coordinates": [105.89613666120931, -50.846129952012426]}}, {"type": "Feature", "properties": {"norad_id": 66622, "name": "STARLINK-35950", "group": "last-30-days", "lat": -10.241639147986444, "lon": 46.75702261445756, "alt_km": 340.827589413494, "timestamp": "2025-12-06T05:40:08.012657+00:00", "meta": {"OBJECT_NAME": "STARLINK-35950", "OBJECT_ID": "2025-271F", "EPOCH": "2025-12-05T04:32:11.522400", "MEAN_MOTION": 15.78888049, "ECCENTRICITY": 8.156e-05, "INCLINATION": 53.1561, "RA_OF_ASC_NODE": 224.1992, "ARG_OF_PERICENTER": 24.5473, "MEAN_ANOMALY": 335.5588, "EPHEMERIS_TYPE": 0, "CLASSIFICATION_TYPE": "U", "NORAD_CAT_ID": 66622, "ELEMENT_SET_NO": 999, "REV_AT_EPOCH": 302, "BSTAR": -0.0043392119, "MEAN_MOTION_DOT": -0.00720349, "MEAN_MOTION_DDOT": 0}, "tle": {"line1": "1 66622U 25271F   25339.18902225 -.00720349  00000+0 -43392-2 0  9999", "line2": "2 66622  53.1561 224.1992 0000815  24.5473 335.5588 15.78888049  3023"}}, "geometry": {"type": "Point", "coordinates": [46.75702261445756, -10.241639147986444]}}, {"type": "Feature", "properties": {"norad_id": 66623, "name": "STARLINK-35920", "group": "last-30-days", "lat": -22.613656370268075, "lon": 57.1362529218527, "alt_km": 333.83719730917437, "timestamp": "2025-12-06T05:40:08.012669+00:00", "meta": {"OBJECT_NAME": "STARLINK-35920", "OBJECT_ID": "2025-271G", "EPOCH": "2025-12-04T10:18:25.884864", "MEAN_MOTION": 15.81474448, "ECCENTRICITY": 0.000142, "INCLINATION": 53.1567, "RA_OF_ASC_NODE": 227.9949, "ARG_OF_PERICENTER": 2.2541, "MEAN_ANOMALY": 357.8488, "EPHEMERIS_TYPE": 0, "CLASSIFICATION_TYPE": "U", "NORAD_CAT_ID": 66623, "ELEMENT_SET_NO": 999, "REV_AT_EPOCH": 290, "BSTAR": -0.001618, "MEAN_MOTION_DOT": -0.00317341, "MEAN_MOTION_DDOT": 0}, "tle": {"line1": "1 66623U 25271G   25338.42946626 -.00317341  00000+0 -16180-2 0  9998", "line2": "2 66623  53.1567 227.9949 0001420   2.2541 357.8488 15.81474448  2905"}}, "geometry": {"type": "Point", "coordinates": [57.1362529218527, -22.613656370268075]}}, {"type": "Feature", "properties": {"norad_id": 66624, "name": "STARLINK-35927", "group": "last-30-days", "lat": -11.98107125865907, "lon": 48.12284157613727, "alt_km": 339.00924228382246, "timestamp": "2025-12-06T05:40:08.012679+00:00", "meta": {"OBJECT_NAME": "STARLINK-35927", "OBJECT_ID": "2025-271H", "EPOCH": "2025-12-05T04:31:39.458496", "MEAN_MOTION": 15.78996813, "ECCENTRICITY": 0.00022332, "INCLINATION": 53.1562, "RA_OF_ASC_NODE": 224.1974, "ARG_OF_PERICENTER": 213.08, "MEAN_ANOMALY": 147.0082, "EPHEMERIS_TYPE": 0, "CLASSIFICATION_TYPE": "U", "NORAD_CAT_ID": 66624, "ELEMENT_SET_NO": 999, "REV_AT_EPOCH": 302, "BSTAR": -0.0047492104, "MEAN_MOTION_DOT": -0.00786598, "MEAN_MOTION_DDOT": 0}, "tle": {"line1": "1 66624U 25271H   25339.18865114 -.00786598  00000+0 -47492-2 0  9999", "line2": "2 66624  53.1562 224.1974 0002233 213.0800 147.0082 15.78996813  3025"}}, "geometry": {"type": "Point", "coordinates": [48.12284157613727, -11.98107125865907]}}, {"type": "Feature", "properties": {"norad_id": 66625, "name": "STARLINK-35929", "group": "last-30-days", "lat": -18.217145652069846, "lon": 53.23588741306374, "alt_km": 337.6824255505271, "timestamp": "2025-12-06T05:40:08.012690+00:00", "meta": {"OBJECT_NAME": "STARLINK-35929", "OBJECT_ID": "2025-271J", "EPOCH": "2025-12-04T19:24:13.592160", "MEAN_MOTION": 15.80096982, "ECCENTRICITY": 0.00025493, "INCLINATION": 53.1566, "RA_OF_ASC_NODE": 226.092, "ARG_OF_PERICENTER": 320.0589, "MEAN_ANOMALY": 40.0246, "EPHEMERIS_TYPE": 0, "CLASSIFICATION_TYPE": "U", "NORAD_CAT_ID": 66625, "ELEMENT_SET_NO": 999, "REV_AT_EPOCH": 296, "BSTAR": -0.0023514157, "MEAN_MOTION_DOT": -0.00427227, "MEAN_MOTION_DDOT": 0}, "tle": {"line1": "1 66625U 25271J   25338.80849065 -.00427227  00000+0 -23514-2 0  9995", "line2": "2 66625  53.1566 226.0920 0002549 320.0589  40.0246 15.80096982  2962"}}, "geometry": {"type": "Point", "coordinates": [53.23588741306374, -18.217145652069846]}}]}